OBJECT_NAME,OBJECT_ID,EPOCH,MEAN_MOTION,ECCENTRICITY,INCLINATION,RA_OF_ASC_NODE,ARG_OF_PERICENTER,MEAN_ANOMALY,EPHEMERIS_TYPE,CLASSIFICATION_TYPE,NORAD_CAT_ID,ELEMENT_SET_NO,REV_AT_EPOCH,BSTAR,MEAN_MOTION_DOT,MEAN_MOTION_DDOT
H-2A R/B,2006-002B,2026-06-15T09:45:35.321184,15.18040833,.00495615,98.2557,322.0742,268.5345,91.0209,0,U,28932,999,10925,.24922979E-3,.5153E-4,0
RESURS-DK 1,2006-021A,2026-06-15T13:56:46.004064,15.13213166,.00068617,69.9341,343.7102,293.0834,66.9608,0,U,29228,999,10233,.12931327E-3,.2194E-4,0
CZ-4B R/B,2006-046C,2026-06-15T14:30:43.116480,15.17774215,.00310081,97.5452,211.2164,288.4602,71.3262,0,U,29507,999,7489,.18467068E-3,.3705E-4,0
CZ-2C R/B,2007-010B,2026-06-15T13:55:55.955136,14.20275899,.00591261,98.4097,275.0100,10.8110,349.4323,0,U,31114,999,99361,.47544463E-4,.62E-6,0
COSMO-SKYMED 1,2007-023A,2026-06-15T15:57:00.421344,14.97092639,.00011924,97.8839,358.5075,99.1869,260.9487,0,U,31598,999,2956,.19819231E-3,.2226E-4,0
COSMOS 2428,2007-029A,2026-06-15T14:04:05.638368,14.12928413,.00071454,70.9370,357.8393,137.9939,222.1731,0,U,31792,999,97792,-.40034012E-4,-.122E-5,0
SL-16 R/B,2007-029B,2026-06-15T15:02:53.741760,14.14854544,.00022949,70.9768,326.5079,261.5565,171.0019,0,U,31793,999,97922,.10957278E-3,.164E-5,0
KORONAS-FOTON,2009-003A,2026-06-15T11:02:28.635360,15.45692606,.00115182,82.4280,174.0610,153.1010,207.0838,0,U,33504,999,96083,.16430595E-3,.7987E-4,0
CZ-2C R/B,2011-030B,2026-06-15T11:57:22.702752,14.81467712,.00531847,97.8655,121.9147,33.3770,84.6734,0,U,37731,999,80457,.14592748E-3,.1116E-4,0
H-2A R/B,2012-025E,2026-06-15T11:37:38.746272,14.95711895,.00437465,98.4828,141.4898,354.9647,5.1126,0,U,38341,999,76283,.2773592E-3,.3077E-4,0
SHIJIAN-16 (SJ-16),2013-057A,2026-06-15T15:08:16.074240,14.92604026,.00168392,74.9728,359.6318,234.4629,125.4990,0,U,39358,999,68611,.1027493E-3,.1031E-4,0
SL-4 R/B,2014-021B,2026-06-15T10:38:45.763008,15.41923142,.00913219,51.6040,219.3137,99.6366,261.4951,0,U,39679,999,67134,.16714625E-3,.7928E-4,0
ALOS-2,2014-029A,2026-06-15T15:37:47.452224,14.79469729,.0001652,97.9224,263.8366,92.4194,267.7207,0,U,39766,999,65135,.29458414E-3,.2149E-4,0
YAOGAN-29,2015-069A,2026-06-15T15:01:30.404640,14.83083497,.00026583,98.0025,195.2562,56.4390,303.7076,0,U,41038,999,57039,.51290171E-4,.363E-5,0
ASTRO-H (HITOMI),2016-012A,2026-06-14T23:39:29.445408,15.10502589,.00097644,30.9993,88.4041,231.8970,128.0788,0,U,41337,999,56695,.13127652E-3,.2314E-4,0
HXMT (HUIYAN),2017-034A,2026-06-15T13:20:09.302208,15.18469377,.00304298,43.0126,192.1261,136.4775,223.8482,0,U,42758,999,49741,.13187175E-3,.2553E-4,0
SAOCOM 1A,2018-076A,2026-06-15T13:59:56.000256,14.82146191,.00015729,97.8876,353.3553,78.1144,282.0245,0,U,43641,999,41586,-.8389721E-5,-.119E-5,0
H-2A R/B,2018-084L,2026-06-15T13:46:33.760704,15.45102145,.00236727,98.8580,45.1118,46.0576,314.2616,0,U,43682,999,42087,.35873228E-3,.17049E-3,0
SAOCOM 1B,2020-059A,2026-06-15T14:44:48.626880,14.82209801,.00013108,97.8878,352.4808,84.0239,276.1124,0,U,46265,999,31325,.89071951E-4,.658E-5,0
CSS (TIANHE),2021-035A,2026-06-15T12:07:40.302048,15.60745824,.00075512,41.4694,332.2368,63.8756,296.2859,0,U,48274,999,29290,.24514915E-3,.2072E-3,0
COSMOS 2550,2021-056A,2026-06-15T15:42:47.837376,15.33838683,.00084075,67.1432,104.5413,268.0119,92.0073,0,U,48865,999,27848,.1356913E-3,.4276E-4,0
CZ-2C R/B,2022-058K,2026-06-15T12:21:07.468992,15.61748697,.003254,50.1830,172.2204,261.0569,98.6721,0,U,52794,999,22538,.35140751E-3,.31424E-3,0
CZ-2C R/B,2022-132E,2026-06-15T13:27:03.724128,15.71338084,.00162369,97.2895,173.5122,89.1284,271.1840,0,U,54039,999,20569,.42543803E-3,.54506E-3,0
GSLV R/B,2022-138AN,2026-06-15T10:43:33.315168,14.97249251,.00226357,87.3801,133.5684,149.4517,210.8039,0,U,54149,999,19855,.21958554E-3,.2583E-4,0
XRISM,2023-137A,2026-06-14T22:43:24.893760,15.12448733,.00079677,31.0032,14.1135,301.5988,58.3873,0,U,57800,999,15252,.25816333E-3,.4701E-4,0
ACS3,2024-077B,2026-06-14T14:54:47.943072,13.93844822,.00689894,97.1678,84.9820,65.3065,295.5264,0,U,59588,999,10768,.58459193E-2,.784E-4,0
CZ-8A R/B,2025-231K,2026-06-15T09:00:05.345568,14.30154450,.01164747,50.0057,47.0258,217.6248,141.6477,0,U,66004,999,3468,.35090796E-4,-.65E-6,0
SZ-21 MODULE,2025-246C,2026-06-13T17:32:52.137600,15.76117488,.00067511,41.4731,328.8460,328.3391,31.7047,0,U,66515,999,3319,.28446481E-3,.45764E-3,0
