H-2A R/B                
1 28932U 06002B   26166.40665881  .00005153  00000+0  24923-3 0  9997
2 28932  98.2557 322.0742 0049561 268.5345  91.0209 15.18040833109251
RESURS-DK 1             
1 29228U 06021A   26166.58108801  .00002194  00000+0  12931-3 0  9998
2 29228  69.9341 343.7102 0006861 293.0834  66.9608 15.13213166102330
CZ-4B R/B               
1 29507U 06046C   26166.60466570  .00003705  00000+0  18467-3 0  9997
2 29507  97.5452 211.2164 0031008 288.4602  71.3262 15.17774215 74895
CZ-2C R/B               
1 31114U 07010B   26166.58050874  .00000062  00000+0  47544-4 0  9991
2 31114  98.4097 275.0100 0059126  10.8110 349.4323 14.20275899993611
COSMO-SKYMED 1          
1 31598U 07023A   26166.66458821  .00002226  00000+0  19819-3 0  9991
2 31598  97.8839 358.5075 0001192  99.1869 260.9487 14.97092639 29568
COSMOS 2428             
1 31792U 07029A   26166.58617637 -.00000122  00000+0 -40034-4 0  9995
2 31792  70.9370 357.8393 0007145 137.9939 222.1731 14.12928413977923
SL-16 R/B               
1 31793U 07029B   26166.62701090  .00000164  00000+0  10957-3 0  9992
2 31793  70.9768 326.5079 0002294 261.5565 171.0019 14.14854544979229
KORONAS-FOTON           
1 33504U 09003A   26166.46005365  .00007987  00000+0  16431-3 0  9995
2 33504  82.4280 174.0610 0011518 153.1010 207.0838 15.45692606960835
CZ-2C R/B               
1 37731U 11030B   26166.49817943  .00001116  00000+0  14593-3 0  9995
2 37731  97.8655 121.9147 0053184  33.3770  84.6734 14.81467712804579
H-2A R/B                
1 38341U 12025E   26166.48447623  .00003077  00000+0  27736-3 0  9992
2 38341  98.4828 141.4898 0043746 354.9647   5.1126 14.95711895762838
SHIJIAN-16 (SJ-16)      
1 39358U 13057A   26166.63074160  .00001031  00000+0  10275-3 0  9994
2 39358  74.9728 359.6318 0016839 234.4629 125.4990 14.92604026686115
SL-4 R/B                
1 39679U 14021B   26166.44358522  .00007928  00000+0  16715-3 0  9994
2 39679  51.6040 219.3137 0091321  99.6366 261.4951 15.41923142671344
ALOS-2                  
1 39766U 14029A   26166.65124366  .00002149  00000+0  29458-3 0  9997
2 39766  97.9224 263.8366 0001652  92.4194 267.7207 14.79469729651352
YAOGAN-29               
1 41038U 15069A   26166.62604635  .00000363  00000+0  51290-4 0  9992
2 41038  98.0025 195.2562 0002658  56.4390 303.7076 14.83083497570397
ASTRO-H (HITOMI)        
1 41337U 16012A   26165.98575747  .00002314  00000+0  13128-3 0  9997
2 41337  30.9993  88.4041 0009764 231.8970 128.0788 15.10502589566955
HXMT (HUIYAN)           
1 42758U 17034A   26166.55566322  .00002553  00000+0  13187-3 0  9993
2 42758  43.0126 192.1261 0030429 136.4775 223.8482 15.18469377497412
SAOCOM 1A               
1 43641U 18076A   26166.58328704 -.00000119  00000+0 -83897-5 0  9990
2 43641  97.8876 353.3553 0001572  78.1144 282.0245 14.82146191415866
H-2A R/B                
1 43682U 18084L   26166.57400186  .00017049  00000+0  35873-3 0  9995
2 43682  98.8580  45.1118 0023672  46.0576 314.2616 15.45102145420873
SAOCOM 1B               
1 46265U 20059A   26166.61445170  .00000658  00000+0  89072-4 0  9996
2 46265  97.8878 352.4808 0001310  84.0239 276.1124 14.82209801313255
CSS (TIANHE)            
1 48274U 21035A   26166.50532757  .00020720  00000+0  24515-3 0  9991
2 48274  41.4694 332.2368 0007551  63.8756 296.2859 15.60745824292900
COSMOS 2550             
1 48865U 21056A   26166.65472034  .00004276  00000+0  13569-3 0  9992
2 48865  67.1432 104.5413 0008407 268.0119  92.0073 15.33838683278488
CZ-2C R/B               
1 52794U 22058K   26166.51466978  .00031424  00000+0  35141-3 0  9991
2 52794  50.1830 172.2204 0032540 261.0569  98.6721 15.61748697225384
CZ-2C R/B               
1 54039U 22132E   26166.56045977  .00054506  00000+0  42544-3 0  9996
2 54039  97.2895 173.5122 0016236  89.1284 271.1840 15.71338084205699
GSLV R/B                
1 54149U 22138AN  26166.44691337  .00002583  00000+0  21959-3 0  9993
2 54149  87.3801 133.5684 0022635 149.4517 210.8039 14.97249251198556
XRISM                   
1 57800U 23137A   26165.94681590  .00004701  00000+0  25816-3 0  9994
2 57800  31.0032  14.1135 0007967 301.5988  58.3873 15.12448733152526
ACS3                    
1 59588U 24077B   26165.62138823  .00007840  00000+0  58459-2 0  9999
2 59588  97.1678  84.9820 0068989  65.3065 295.5264 13.93844822107680
CZ-8A R/B               
1 66004U 25231K   26166.37506187 -.00000065  00000+0  35091-4 0  9990
2 66004  50.0057  47.0258 0116474 217.6248 141.6477 14.30154450 34682
SZ-21 MODULE            
1 66515U 25246C   26164.73115900  .00045764  00000+0  28446-3 0  9999
2 66515  41.4731 328.8460 0006751 328.3391  31.7047 15.76117488 33190
